SPAWAR-CAL-O            
1 43766U 18099J   26068.73975788  .00021069  00000+0  69663-3 0  9999
2 43766  97.4452 132.0993 0007239 285.0670  74.9770 15.31356755398280
STARLINK-34366          
1 64281U 25120AB  26068.54340572  .00032487  00000+0  11041-2 0  9995
2 64281  53.1577 117.3752 0001247  67.9046 292.2087 15.30201519 43849
